1 41887U 16078D   22257.39464970  .00003806  00000-0  19181-3 0  9990
2 41887  34.9542  10.2746 0015030 169.6870 190.4153 15.16535807318245
1 41887U 16078D   22257.72380639  .00003874  00000-0  19517-3 0  9994
2 41887  34.9542   8.2241 0015057 172.6209 187.4726 15.16538589318298
1 41887U 16078D   22257.72380639  .00003874  00000-0  19517-3 0  9994
2 41887  34.9542   8.2241 0015057 172.6209 187.4726 15.16538589318412
1 41887U 16078D   22258.38211765  .00004462  00000-0  22447-3 0  9990
2 41887  34.9542   4.1227 0015155 178.5882 181.4874 15.16545184318396
1 41887U 16078D   22258.64544215  .00003782  00000-0  19055-3 0  9993
2 41887  34.9542   2.4824 0015175 180.9271 179.1414 15.16545361318437
1 41887U 16078D   22259.56707369  .00003849  00000-0  19385-3 0  9996
2 41887  34.9541 356.7404 0015300 189.2970 170.7460 15.16552252318573
1 41887U 16078D   22259.56707369  .00003849  00000-0  19385-3 0  9996
2 41887  34.9541 356.7404 0015300 189.2970 170.7460 15.16552252318696
1 41887U 16078D   22259.63290440  .00003870  00000-0  19485-3 0  9996
2 41887  34.9542 356.3304 0015303 189.8895 170.1517 15.16552764318580
1 41887U 16078D   22260.55453207  .00003283  00000-0  16554-3 0  9993
2 41887  34.9541 350.5886 0015404 197.9522 162.0647 15.16557952318723
1 41887U 16078D   22260.62036252  .00003287  00000-0  16573-3 0  9993
2 41887  34.9542 350.1785 0015410 198.5289 161.4863 15.16558395318738
1 41887U 16078D   22260.62036252  .00003287  00000-0  16573-3 0  9993
2 41887  34.9542 350.1785 0015410 198.5289 161.4863 15.16558395318851
1 41887U 16078D   22261.54198665  .00003347  00000-0  16872-3 0  9991
2 41887  34.9542 344.4365 0015517 206.6095 153.3821 15.16564543318873
1 41887U 16078D   22261.60781685  .00003214  00000-0  16205-3 0  9991
2 41887  34.9542 344.0264 0015519 207.1548 152.8353 15.16564659318881
1 41887U 16078D   22261.93696721  .00003253  00000-0  16400-3 0  9993
2 41887  34.9542 341.9756 0015558 209.9885 149.9937 15.16566960319052
1 41887U 16078D   22262.52943718  .00003153  00000-0  15896-3 0  9997
2 41887  34.9542 338.2844 0015633 215.0898 144.8784 15.16570585319024
1 41887U 16078D   22262.59526701  .00003105  00000-0  15661-3 0  9990
2 41887  34.9541 337.8743 0015623 215.6386 144.3283 15.16570896319038
1 41887U 16078D   22263.51688375  .00003013  00000-0  15196-3 0  9990
2 41887  34.9541 332.1323 0015736 223.6802 136.2665 15.16576663319297
